LEMUR-2-ARIANNA         
1 62699U 25009CU  26066.14068351  .00009321  00000+0  73770-3 0  9997
2 62699  97.7004 148.4673 0004489 151.9199 208.2267 15.00818533 62249
LEMUR-2-ALISIA          
1 62706U 25009DB  26065.53807708  .00010023  00000+0  78743-3 0  9991
2 62706  97.7056 148.5239 0006446 166.6446 193.4950 15.01073139 84757
LEMUR-2-ROUNDTRIPPER    
1 62711U 25009DG  26066.16333968  .00010295  00000+0  78919-3 0  9995
2 62711  97.7300 149.1157 0004961 130.1335 230.0324 15.02009519 62306
LEMUR-2-MYNAMEISJEFF    
1 62712U 25009DH  26066.16188564  .00011038  00000+0  84595-3 0  9999
2 62712  97.7349 149.4349 0004125 156.2908 203.8507 15.02002172 62302
LEMUR-2-LEIA-PHILIP     
1 63246U 25052AN  26065.94078853  .00006250  00000+0  55367-3 0  9999
2 63246  97.6954 319.5822 0003042 188.0272 172.0901 14.96592106 53371
LEMUR-2-LIA-MARTIN      
1 63248U 25052AQ  26066.16305788  .00006573  00000+0  57941-3 0  9994
2 63248  97.7001 320.1609 0003430 149.8476 210.2944 14.96763189 53418
LEMUR-2-DELOITTE-1      
1 63259U 25052BB  26066.13180411  .00005557  00000+0  49077-3 0  9999
2 63259  97.7046 320.4433 0003221  84.3255 275.8333 14.96761260 53421
LEMUR-2-EMERSONROSE     
1 63261U 25052BD  26065.27220025  .00006665  00000+0  56653-3 0  9991
2 63261  97.7030 319.9492 0003113  57.8630 302.2894 14.98179639 53328
LEMUR-2-MARACHE-FRAN    
1 63262U 25052BE  26066.17204387  .00007898  00000+0  65889-3 0  9995
2 63262  97.6992 321.0283 0002361  45.1539 314.9875 14.98847760 53471
LEMUR-2-THEFALCONER     
1 63264U 25052BG  26066.14318681  .00005657  00000+0  50323-3 0  9995
2 63264  97.6976 320.1854 0002466  21.6334 338.4991 14.96471405 53429
LEMUR-2-UNTITLED-SC     
1 63351U 25061A   26065.98152022  .00005293  00000+0  30544-3 0  9997
2 63351  97.5557  42.2043 0017129 256.6024 103.3297 15.12658765 52130
LEMUR-2-ESPERANZA       
1 63352U 25061B   26066.16288889  .00005351  00000+0  30809-3 0  9999
2 63352  97.5563  42.4544 0016824 255.1504 104.7863 15.12734444 52160
LEMUR-2-KREMPEL-BRO2    
1 63353U 25061C   26065.88801549  .00006149  00000+0  34941-3 0  9999
2 63353  97.5609  42.5854 0017849 248.2997 111.6334 15.13137479 52137
LEMUR-2-THERMORAPTOR    
1 63354U 25061D   26065.87478436  .00007196  00000+0  40734-3 0  9994
2 63354  97.5618  42.6297 0017521 247.2852 112.6527 15.13218058 52134
LEMUR-2-NEUROSPICY      
1 63355U 25061E   26066.18475216  .00006120  00000+0  34620-3 0  9996
2 63355  97.5545  42.6434 0015249 249.8331 110.1260 15.13334090 52189
LEMUR-2-TILLINFINITY    
1 63356U 25061F   26065.92884004  .00005952  00000+0  33132-3 0  9996
2 63356  97.5531  42.6089 0016656 238.0865 121.8746 15.13905965 52167
