[{"OBJECT_NAME":"LEMUR-2-ARIANNA","OBJECT_ID":"2025-009CU","EPOCH":"2026-03-07T03:22:35.055264","MEAN_MOTION":15.00818533,"ECCENTRICITY":0.0004489,"INCLINATION":97.7004,"RA_OF_ASC_NODE":148.4673,"ARG_OF_PERICENTER":151.9199,"MEAN_ANOMALY":208.2267,"EPHEMERIS_TYPE":0,"CLASSIFICATION_TYPE":"U","NORAD_CAT_ID":62699,"ELEMENT_SET_NO":999,"REV_AT_EPOCH":6224,"BSTAR":0.0007377,"MEAN_MOTION_DOT":9.321e-5,"MEAN_MOTION_DDOT":0},{"OBJECT_NAME":"LEMUR-2-ALISIA","OBJECT_ID":"2025-009DB","EPOCH":"2026-03-06T12:54:49.859712","MEAN_MOTION":15.01073139,"ECCENTRICITY":0.00064465,"INCLINATION":97.7056,"RA_OF_ASC_NODE":148.5239,"ARG_OF_PERICENTER":166.6446,"MEAN_ANOMALY":193.495,"EPHEMERIS_TYPE":0,"CLASSIFICATION_TYPE":"U","NORAD_CAT_ID":62706,"ELEMENT_SET_NO":999,"REV_AT_EPOCH":8475,"BSTAR":0.00078742538,"MEAN_MOTION_DOT":0.00010023,"MEAN_MOTION_DDOT":0},{"OBJECT_NAME":"LEMUR-2-ROUNDTRIPPER","OBJECT_ID":"2025-009DG","EPOCH":"2026-03-07T03:55:12.548352","MEAN_MOTION":15.02009519,"ECCENTRICITY":0.0004961,"INCLINATION":97.73,"RA_OF_ASC_NODE":149.1157,"ARG_OF_PERICENTER":130.1335,"MEAN_ANOMALY":230.0324,"EPHEMERIS_TYPE":0,"CLASSIFICATION_TYPE":"U","NORAD_CAT_ID":62711,"ELEMENT_SET_NO":999,"REV_AT_EPOCH":6230,"BSTAR":0.00078919,"MEAN_MOTION_DOT":0.00010295,"MEAN_MOTION_DDOT":0},{"OBJECT_NAME":"LEMUR-2-MYNAMEISJEFF","OBJECT_ID":"2025-009DH","EPOCH":"2026-03-07T03:53:06.919296","MEAN_MOTION":15.02002172,"ECCENTRICITY":0.0004125,"INCLINATION":97.7349,"RA_OF_ASC_NODE":149.4349,"ARG_OF_PERICENTER":156.2908,"MEAN_ANOMALY":203.8507,"EPHEMERIS_TYPE":0,"CLASSIFICATION_TYPE":"U","NORAD_CAT_ID":62712,"ELEMENT_SET_NO":999,"REV_AT_EPOCH":6230,"BSTAR":0.00084595,"MEAN_MOTION_DOT":0.00011038,"MEAN_MOTION_DDOT":0},{"OBJECT_NAME":"LEMUR-2-LEIA-PHILIP","OBJECT_ID":"2025-052AN","EPOCH":"2026-03-06T22:34:44.128992","MEAN_MOTION":14.96592106,"ECCENTRICITY":0.0003042,"INCLINATION":97.6954,"RA_OF_ASC_NODE":319.5822,"ARG_OF_PERICENTER":188.0272,"MEAN_ANOMALY":172.0901,"EPHEMERIS_TYPE":0,"CLASSIFICATION_TYPE":"U","NORAD_CAT_ID":63246,"ELEMENT_SET_NO":999,"REV_AT_EPOCH":5337,"BSTAR":0.00055367,"MEAN_MOTION_DOT":6.25e-5,"MEAN_MOTION_DDOT":0},{"OBJECT_NAME":"LEMUR-2-LIA-MARTIN","OBJECT_ID":"2025-052AQ","EPOCH":"2026-03-07T03:54:48.200832","MEAN_MOTION":14.96763189,"ECCENTRICITY":0.000343,"INCLINATION":97.7001,"RA_OF_ASC_NODE":320.1609,"ARG_OF_PERICENTER":149.8476,"MEAN_ANOMALY":210.2944,"EPHEMERIS_TYPE":0,"CLASSIFICATION_TYPE":"U","NORAD_CAT_ID":63248,"ELEMENT_SET_NO":999,"REV_AT_EPOCH":5341,"BSTAR":0.00057941,"MEAN_MOTION_DOT":6.573e-5,"MEAN_MOTION_DDOT":0},{"OBJECT_NAME":"LEMUR-2-DELOITTE-1","OBJECT_ID":"2025-052BB","EPOCH":"2026-03-07T03:09:47.875104","MEAN_MOTION":14.9676126,"ECCENTRICITY":0.0003221,"INCLINATION":97.7046,"RA_OF_ASC_NODE":320.4433,"ARG_OF_PERICENTER":84.3255,"MEAN_ANOMALY":275.8333,"EPHEMERIS_TYPE":0,"CLASSIFICATION_TYPE":"U","NORAD_CAT_ID":63259,"ELEMENT_SET_NO":999,"REV_AT_EPOCH":5342,"BSTAR":0.00049077,"MEAN_MOTION_DOT":5.557e-5,"MEAN_MOTION_DDOT":0},{"OBJECT_NAME":"LEMUR-2-EMERSONROSE","OBJECT_ID":"2025-052BD","EPOCH":"2026-03-06T06:31:58.101600","MEAN_MOTION":14.98179639,"ECCENTRICITY":0.00031134,"INCLINATION":97.703,"RA_OF_ASC_NODE":319.9492,"ARG_OF_PERICENTER":57.863,"MEAN_ANOMALY":302.2894,"EPHEMERIS_TYPE":0,"CLASSIFICATION_TYPE":"U","NORAD_CAT_ID":63261,"ELEMENT_SET_NO":999,"REV_AT_EPOCH":5332,"BSTAR":0.00056652856,"MEAN_MOTION_DOT":6.665e-5,"MEAN_MOTION_DDOT":0},{"OBJECT_NAME":"LEMUR-2-MARACHE-FRAN","OBJECT_ID":"2025-052BE","EPOCH":"2026-03-07T04:07:44.590368","MEAN_MOTION":14.9884776,"ECCENTRICITY":0.0002361,"INCLINATION":97.6992,"RA_OF_ASC_NODE":321.0283,"ARG_OF_PERICENTER":45.1539,"MEAN_ANOMALY":314.9875,"EPHEMERIS_TYPE":0,"CLASSIFICATION_TYPE":"U","NORAD_CAT_ID":63262,"ELEMENT_SET_NO":999,"REV_AT_EPOCH":5347,"BSTAR":0.00065889,"MEAN_MOTION_DOT":7.898e-5,"MEAN_MOTION_DDOT":0},{"OBJECT_NAME":"LEMUR-2-THEFALCONER","OBJECT_ID":"2025-052BG","EPOCH":"2026-03-07T03:26:11.340384","MEAN_MOTION":14.96471405,"ECCENTRICITY":0.0002466,"INCLINATION":97.6976,"RA_OF_ASC_NODE":320.1854,"ARG_OF_PERICENTER":21.6334,"MEAN_ANOMALY":338.4991,"EPHEMERIS_TYPE":0,"CLASSIFICATION_TYPE":"U","NORAD_CAT_ID":63264,"ELEMENT_SET_NO":999,"REV_AT_EPOCH":5342,"BSTAR":0.00050323,"MEAN_MOTION_DOT":5.657e-5,"MEAN_MOTION_DDOT":0},{"OBJECT_NAME":"LEMUR-2-UNTITLED-SC","OBJECT_ID":"2025-061A","EPOCH":"2026-03-06T23:33:23.347008","MEAN_MOTION":15.12658765,"ECCENTRICITY":0.0017129,"INCLINATION":97.5557,"RA_OF_ASC_NODE":42.2043,"ARG_OF_PERICENTER":256.6024,"MEAN_ANOMALY":103.3297,"EPHEMERIS_TYPE":0,"CLASSIFICATION_TYPE":"U","NORAD_CAT_ID":63351,"ELEMENT_SET_NO":999,"REV_AT_EPOCH":5213,"BSTAR":0.00030544,"MEAN_MOTION_DOT":5.293e-5,"MEAN_MOTION_DDOT":0},{"OBJECT_NAME":"LEMUR-2-ESPERANZA","OBJECT_ID":"2025-061B","EPOCH":"2026-03-07T03:54:33.600096","MEAN_MOTION":15.12734444,"ECCENTRICITY":0.0016824,"INCLINATION":97.5563,"RA_OF_ASC_NODE":42.4544,"ARG_OF_PERICENTER":255.1504,"MEAN_ANOMALY":104.7863,"EPHEMERIS_TYPE":0,"CLASSIFICATION_TYPE":"U","NORAD_CAT_ID":63352,"ELEMENT_SET_NO":999,"REV_AT_EPOCH":5216,"BSTAR":0.00030809,"MEAN_MOTION_DOT":5.351e-5,"MEAN_MOTION_DDOT":0},{"OBJECT_NAME":"LEMUR-2-KREMPEL-BRO2","OBJECT_ID":"2025-061C","EPOCH":"2026-03-06T21:18:44.538336","MEAN_MOTION":15.13137479,"ECCENTRICITY":0.0017849,"INCLINATION":97.5609,"RA_OF_ASC_NODE":42.5854,"ARG_OF_PERICENTER":248.2997,"MEAN_ANOMALY":111.6334,"EPHEMERIS_TYPE":0,"CLASSIFICATION_TYPE":"U","NORAD_CAT_ID":63353,"ELEMENT_SET_NO":999,"REV_AT_EPOCH":5213,"BSTAR":0.00034941,"MEAN_MOTION_DOT":6.149e-5,"MEAN_MOTION_DDOT":0},{"OBJECT_NAME":"LEMUR-2-THERMORAPTOR","OBJECT_ID":"2025-061D","EPOCH":"2026-03-06T20:59:41.368704","MEAN_MOTION":15.13218058,"ECCENTRICITY":0.0017521,"INCLINATION":97.5618,"RA_OF_ASC_NODE":42.6297,"ARG_OF_PERICENTER":247.2852,"MEAN_ANOMALY":112.6527,"EPHEMERIS_TYPE":0,"CLASSIFICATION_TYPE":"U","NORAD_CAT_ID":63354,"ELEMENT_SET_NO":999,"REV_AT_EPOCH":5213,"BSTAR":0.00040734,"MEAN_MOTION_DOT":7.196e-5,"MEAN_MOTION_DDOT":0},{"OBJECT_NAME":"LEMUR-2-NEUROSPICY","OBJECT_ID":"2025-061E","EPOCH":"2026-03-07T04:26:02.586624","MEAN_MOTION":15.1333409,"ECCENTRICITY":0.0015249,"INCLINATION":97.5545,"RA_OF_ASC_NODE":42.6434,"ARG_OF_PERICENTER":249.8331,"MEAN_ANOMALY":110.126,"EPHEMERIS_TYPE":0,"CLASSIFICATION_TYPE":"U","NORAD_CAT_ID":63355,"ELEMENT_SET_NO":999,"REV_AT_EPOCH":5218,"BSTAR":0.0003462,"MEAN_MOTION_DOT":6.12e-5,"MEAN_MOTION_DDOT":0},{"OBJECT_NAME":"LEMUR-2-TILLINFINITY","OBJECT_ID":"2025-061F","EPOCH":"2026-03-06T22:17:31.779456","MEAN_MOTION":15.13905965,"ECCENTRICITY":0.0016656,"INCLINATION":97.5531,"RA_OF_ASC_NODE":42.6089,"ARG_OF_PERICENTER":238.0865,"MEAN_ANOMALY":121.8746,"EPHEMERIS_TYPE":0,"CLASSIFICATION_TYPE":"U","NORAD_CAT_ID":63356,"ELEMENT_SET_NO":999,"REV_AT_EPOCH":5216,"BSTAR":0.00033132,"MEAN_MOTION_DOT":5.952e-5,"MEAN_MOTION_DDOT":0}]
